{"type":"FeatureCollection","name":"GAB dataset, version 1.0 of 08/11/2026.","disclaimer":"**About this data.** A machine reads public documents and proposes each claim. Each claim cites the documents that state it, and each claim carries a label that tells who decided it.\n\n- **Proposed — not checked:** a candidate. No rule and no person checked it. It is not evidence.\n- **Accepted by rule … — no person read it:** the claim passed a named rule on its cited sources. No person read it. Nobody has measured the accuracy of the rules yet.\n- **Accepted by an AI reviewer — no person read it:** an AI checked the claim. No person read it.\n- **Validated manually by the operator:** the operator read the sources and accepted the claim.\n\nA claim tells what its sources say. A source can be wrong. GAB gives no personal data about a person beyond what a cited source already publishes. Each row carries its label: when you copy a row, copy its label with it.\n\nReport an error: https://example.org/report-an-error. Right of reply: mailto:reply@example.org.","features":[{"type":"Feature","id":"0a1f0000-0000-4000-8000-000000000001","geometry":{"type":"Point","coordinates":[28.85,60.34]},"properties":{"id":"0a1f0000-0000-4000-8000-000000000001","type":"vessel","label":"Severnaya Volna","origin_label":"Accepted by rule strong_sources v2 — no person read it, on 2026-10-02","licence":"CC-BY 4.0","document_ids":"eu_act"}},{"type":"Feature","id":"0a1f0000-0000-4000-8000-000000000004","geometry":{"type":"Point","coordinates":[28.61,60.35]},"properties":{"id":"0a1f0000-0000-4000-8000-000000000004","type":"port","label":"Primorsk","origin_label":"Proposed — not checked","licence":"derived fact; source under the provider licence, not redistributed","document_ids":"news"}}]}
